<?xml version="1.0" encoding="UTF-8"?>
<gpx version="1.1" creator="test" xmlns="http://www.topografix.com/GPX/1/1">

  <metadata><name>Two-part outing</name></metadata>
  <trk><name>Morning</name><trkseg>
    <trkpt lat="46.0000" lon="7.0000"><ele>1500</ele></trkpt>
    <trkpt lat="46.0100" lon="7.0100"><ele>1600</ele></trkpt>
  </trkseg></trk>
  <trk><name>Afternoon</name><trkseg>
    <trkpt lat="46.0200" lon="7.0200"><ele>1650</ele></trkpt>
    <trkpt lat="46.0300" lon="7.0300"><ele>1700</ele></trkpt>
    <trkpt lat="46.0400" lon="7.0400"><ele>1550</ele></trkpt>
  </trkseg></trk>
</gpx>
