<?xml version="1.0" encoding="UTF-8"?>
<gpx version="1.1" creator="OsmAnd" xmlns="http://www.topografix.com/GPX/1/1" xmlns:gpxtpx="http://www.garmin.com/xmlschemas/TrackPointExtension/v1">

  <trk><name>Extensions ignored</name><trkseg>
    <trkpt lat="50.9400" lon="6.9600"><ele>50</ele>
      <extensions><gpxtpx:TrackPointExtension><gpxtpx:hr>142</gpxtpx:hr><gpxtpx:cad>84</gpxtpx:cad></gpxtpx:TrackPointExtension></extensions>
    </trkpt>
    <trkpt lat="50.9450" lon="6.9660"><ele>52</ele>
      <extensions><gpxtpx:TrackPointExtension><gpxtpx:hr>150</gpxtpx:hr></gpxtpx:TrackPointExtension></extensions>
    </trkpt>
  </trkseg></trk>
</gpx>
